{
  "type": "FeatureCollection",
  "features": [
    {
      "type": "Feature",
      "properties": {
        "norad_id": 38250,
        "name": "BEIDOU-2 M3 (C11)",
        "group": "beidou",
        "lat": -38.99191299636493,
        "lon": 163.96988153212848,
        "alt_km": 21486.04050820717,
        "timestamp": "2025-12-23T22:42:33.249299+00:00",
        "meta_object_name": "BEIDOU-2 M3 (C11)",
        "meta_object_id": "2012-018A",
        "meta_epoch": "2025-12-23T01:35:36.846816",
        "meta_mean_motion": 1.86230199,
        "meta_eccentricity": 0.00241034,
        "meta_inclination": 55.9114,
        "meta_ra_of_asc_node": 310.8107,
        "meta_arg_of_pericenter": 275.3309,
        "meta_mean_anomaly": 84.3935,
        "meta_ephemeris_type": 0,
        "meta_classification_type": "U",
        "meta_norad_cat_id": 38250,
        "meta_element_set_no": 999,
        "meta_rev_at_epoch": 9266,
        "meta_bstar": 0,
        "meta_mean_motion_dot": -5.5e-07,
        "meta_mean_motion_ddot": 0,
        "tle_line1": "1 38250U 12018A   25357.06639869 -.00000055  00000+0  00000+0 0  9998",
        "tle_line2": "2 38250  55.9114 310.8107 0024103 275.3309  84.3935  1.86230199 92668"
      },
      "geometry": {
        "type": "Point",
        "coordinates": [
          163.96988153212848,
          -38.99191299636493
        ]
      }
    },
    {
      "type": "Feature",
      "properties": {
        "norad_id": 38251,
        "name": "BEIDOU-2 M4 (C12)",
        "group": "beidou",
        "lat": -55.46980027492338,
        "lon": -130.72150863155701,
        "alt_km": 21491.601283814114,
        "timestamp": "2025-12-23T22:42:33.249310+00:00",
        "meta_object_name": "BEIDOU-2 M4 (C12)",
        "meta_object_id": "2012-018B",
        "meta_epoch": "2025-12-21T22:11:20.549760",
        "meta_mean_motion": 1.86229896,
        "meta_eccentricity": 0.00152556,
        "meta_inclination": 55.8135,
        "meta_ra_of_asc_node": 310.0771,
        "meta_arg_of_pericenter": 279.1681,
        "meta_mean_anomaly": 80.6551,
        "meta_ephemeris_type": 0,
        "meta_classification_type": "U",
        "meta_norad_cat_id": 38251,
        "meta_element_set_no": 999,
        "meta_rev_at_epoch": 9264,
        "meta_bstar": 0,
        "meta_mean_motion_dot": -6e-07,
        "meta_mean_motion_ddot": 0,
        "tle_line1": "1 38251U 12018B   25355.92454340 -.00000060  00000+0  00000+0 0  9997",
        "tle_line2": "2 38251  55.8135 310.0771 0015255 279.1681  80.6551  1.86229896 92646"
      },
      "geometry": {
        "type": "Point",
        "coordinates": [
          -130.72150863155701,
          -55.46980027492338
        ]
      }
    },
    {
      "type": "Feature",
      "properties": {
        "norad_id": 38775,
        "name": "BEIDOU-2 M6 (C14)",
        "group": "beidou",
        "lat": 51.798072321456786,
        "lon": -168.8581041557601,
        "alt_km": 21540.78031850008,
        "timestamp": "2025-12-23T22:42:33.249321+00:00",
        "meta_object_name": "BEIDOU-2 M6 (C14)",
        "meta_object_id": "2012-050B",
        "meta_epoch": "2025-12-23T05:54:39.234816",
        "meta_mean_motion": 1.86230862,
        "meta_eccentricity": 0.00114449,
        "meta_inclination": 56.3871,
        "meta_ra_of_asc_node": 68.7189,
        "meta_arg_of_pericenter": 343.1863,
        "meta_mean_anomaly": 16.829,
        "meta_ephemeris_type": 0,
        "meta_classification_type": "U",
        "meta_norad_cat_id": 38775,
        "meta_element_set_no": 999,
        "meta_rev_at_epoch": 9003,
        "meta_bstar": 0,
        "meta_mean_motion_dot": -2.5e-07,
        "meta_mean_motion_ddot": 0,
        "tle_line1": "1 38775U 12050B   25357.24628744 -.00000025  00000+0  00000+0 0  9993",
        "tle_line2": "2 38775  56.3871  68.7189 0011444 343.1863  16.8290  1.86230862 90037"
      },
      "geometry": {
        "type": "Point",
        "coordinates": [
          -168.8581041557601,
          51.798072321456786
        ]
      }
    },
    {
      "type": "Feature",
      "properties": {
        "norad_id": 38953,
        "name": "BEIDOU-2 G6 (C02)",
        "group": "beidou",
        "lat": 3.9515085026031507,
        "lon": 157.29966663362356,
        "alt_km": 35816.65425085263,
        "timestamp": "2025-12-23T22:42:33.249333+00:00",
        "meta_object_name": "BEIDOU-2 G6 (C02)",
        "meta_object_id": "2012-059A",
        "meta_epoch": "2025-12-23T00:55:51.734208",
        "meta_mean_motion": 1.00268399,
        "meta_eccentricity": 0.00083158,
        "meta_inclination": 3.9737,
        "meta_ra_of_asc_node": 75.4058,
        "meta_arg_of_pericenter": 292.2728,
        "meta_mean_anomaly": 182.0387,
        "meta_ephemeris_type": 0,
        "meta_classification_type": "U",
        "meta_norad_cat_id": 38953,
        "meta_element_set_no": 999,
        "meta_rev_at_epoch": 4814,
        "meta_bstar": 0,
        "meta_mean_motion_dot": -1.55e-06,
        "meta_mean_motion_ddot": 0,
        "tle_line1": "1 38953U 12059A   25357.03879322 -.00000155  00000+0  00000+0 0  9991",
        "tle_line2": "2 38953   3.9737  75.4058 0008315 292.2728 182.0387  1.00268399 48141"
      },
      "geometry": {
        "type": "Point",
        "coordinates": [
          157.29966663362356,
          3.9515085026031507
        ]
      }
    },
    {
      "type": "Feature",
      "properties": {
        "norad_id": 40549,
        "name": "BEIDOU-3S IGSO-1S (C31)",
        "group": "beidou",
        "lat": -36.12299755287123,
        "lon": 156.0069609035557,
        "alt_km": 35662.79464377086,
        "timestamp": "2025-12-23T22:42:33.249344+00:00",
        "meta_object_name": "BEIDOU-3S IGSO-1S (C31)",
        "meta_object_id": "2015-019A",
        "meta_epoch": "2025-12-18T19:55:38.829792",
        "meta_mean_motion": 1.00292047,
        "meta_eccentricity": 0.0036331,
        "meta_inclination": 49.5404,
        "meta_ra_of_asc_node": 297.6395,
        "meta_arg_of_pericenter": 194.0028,
        "meta_mean_anomaly": 349.3621,
        "meta_ephemeris_type": 0,
        "meta_classification_type": "U",
        "meta_norad_cat_id": 40549,
        "meta_element_set_no": 999,
        "meta_rev_at_epoch": 3926,
        "meta_bstar": 0,
        "meta_mean_motion_dot": -1.83e-06,
        "meta_mean_motion_ddot": 0,
        "tle_line1": "1 40549U 15019A   25352.83031053 -.00000183  00000+0  00000+0 0  9999",
        "tle_line2": "2 40549  49.5404 297.6395 0036331 194.0028 349.3621  1.00292047 39264"
      },
      "geometry": {
        "type": "Point",
        "coordinates": [
          156.0069609035557,
          -36.12299755287123
        ]
      }
    },
    {
      "type": "Feature",
      "properties": {
        "norad_id": 40748,
        "name": "BEIDOU-3S M2S (C58)",
        "group": "beidou",
        "lat": 33.446592926031734,
        "lon": 100.5554856671483,
        "alt_km": 21546.76822147889,
        "timestamp": "2025-12-23T22:42:33.249357+00:00",
        "meta_object_name": "BEIDOU-3S M2S (C58)",
        "meta_object_id": "2015-037A",
        "meta_epoch": "2025-12-22T03:06:37.980000",
        "meta_mean_motion": 1.86229546,
        "meta_eccentricity": 0.00118585,
        "meta_inclination": 55.0305,
        "meta_ra_of_asc_node": 308.1418,
        "meta_arg_of_pericenter": 270.827,
        "meta_mean_anomaly": 89.0356,
        "meta_ephemeris_type": 0,
        "meta_classification_type": "U",
        "meta_norad_cat_id": 40748,
        "meta_element_set_no": 999,
        "meta_rev_at_epoch": 7082,
        "meta_bstar": 0,
        "meta_mean_motion_dot": -5.8e-07,
        "meta_mean_motion_ddot": 0,
        "tle_line1": "1 40748U 15037A   25356.12960625 -.00000058  00000+0  00000+0 0  9993",
        "tle_line2": "2 40748  55.0305 308.1418 0011858 270.8270  89.0356  1.86229546 70828"
      },
      "geometry": {
        "type": "Point",
        "coordinates": [
          100.5554856671483,
          33.446592926031734
        ]
      }
    },
    {
      "type": "Feature",
      "properties": {
        "norad_id": 40749,
        "name": "BEIDOU-3S M1S (C57)",
        "group": "beidou",
        "lat": -12.586083661502812,
        "lon": -60.93241733199471,
        "alt_km": 21517.74375667611,
        "timestamp": "2025-12-23T22:42:33.249367+00:00",
        "meta_object_name": "BEIDOU-3S M1S (C57)",
        "meta_object_id": "2015-037B",
        "meta_epoch": "2025-12-22T21:29:24.264672",
        "meta_mean_motion": 1.86253921,
        "meta_eccentricity": 0.00037347,
        "meta_inclination": 55.0261,
        "meta_ra_of_asc_node": 308.1047,
        "meta_arg_of_pericenter": 3.0626,
        "meta_mean_anomaly": 356.941,
        "meta_ephemeris_type": 0,
        "meta_classification_type": "U",
        "meta_norad_cat_id": 40749,
        "meta_element_set_no": 999,
        "meta_rev_at_epoch": 7084,
        "meta_bstar": 0,
        "meta_mean_motion_dot": -5.5e-07,
        "meta_mean_motion_ddot": 0,
        "tle_line1": "1 40749U 15037B   25356.89541973 -.00000055  00000+0  00000+0 0  9996",
        "tle_line2": "2 40749  55.0261 308.1047 0003734   3.0626 356.9410  1.86253921 70846"
      },
      "geometry": {
        "type": "Point",
        "coordinates": [
          -60.93241733199471,
          -12.586083661502812
        ]
      }
    }
  ]
}